{
  "norad_id": 58614,
  "name": "COSMOS 2573",
  "history": [
    {
      "epoch": "2026-03-28T21:56:15.970272Z",
      "apogee_km": 493.74843710056757,
      "perigee_km": 492.1140848040186,
      "latitude_deg": 1.7972625343244127e-05,
      "longitude_deg": -119.45743330309062,
      "height_km": 495.41810787838585,
      "semi_major_axis_km": 6871.068260952293,
      "eccentricity": 0.00011893,
      "inclination_deg": 97.6199,
      "raan_deg": 35.9368,
      "arg_perigee_deg": 42.5813,
      "mean_anomaly_deg": 317.5516,
      "mean_motion_rev_day": 15.24285672
    },
    {
      "epoch": "2026-03-29T04:14:23.326368Z",
      "apogee_km": 493.72709600084454,
      "perigee_km": 492.117893867131,
      "latitude_deg": -4.852152518855224e-05,
      "longitude_deg": 146.02000947573845,
      "height_km": 495.4190817359888,
      "semi_major_axis_km": 6871.0594949339875,
      "eccentricity": 0.0001171,
      "inclination_deg": 97.62,
      "raan_deg": 36.2037,
      "arg_perigee_deg": 42.6286,
      "mean_anomaly_deg": 317.5041,
      "mean_motion_rev_day": 15.24288589
    },
    {
      "epoch": "2026-03-30T03:52:20.477568Z",
      "apogee_km": 493.6341998761709,
      "perigee_km": 492.1363170238292,
      "latitude_deg": 4.502866653932909e-05,
      "longitude_deg": 151.56221362097838,
      "height_km": 495.43031519657876,
      "semi_major_axis_km": 6871.02225845,
      "eccentricity": 0.000109,
      "inclination_deg": 97.6204,
      "raan_deg": 37.2046,
      "arg_perigee_deg": 43.4632,
      "mean_anomaly_deg": 316.6691,
      "mean_motion_rev_day": 15.2430098
    },
    {
      "epoch": "2026-03-30T07:01:24.057120Z",
      "apogee_km": 493.62197598521016,
      "perigee_km": 492.1397600107266,
      "latitude_deg": 1.648098108871277e-06,
      "longitude_deg": 104.30139800616702,
      "height_km": 495.4335134198748,
      "semi_major_axis_km": 6871.017867997968,
      "eccentricity": 0.00010786,
      "inclination_deg": 97.6204,
      "raan_deg": 37.3381,
      "arg_perigee_deg": 43.6747,
      "mean_anomaly_deg": 316.4575,
      "mean_motion_rev_day": 15.24302441
    },
    {
      "epoch": "2026-03-30T14:54:02.924352Z",
      "apogee_km": 493.5904770491934,
      "perigee_km": 492.14440545448724,
      "latitude_deg": -8.720367302109594e-05,
      "longitude_deg": -13.850352506904231,
      "height_km": 495.44467629990834,
      "semi_major_axis_km": 6871.00444125184,
      "eccentricity": 0.00010523,
      "inclination_deg": 97.6206,
      "raan_deg": 37.6718,
      "arg_perigee_deg": 44.9788,
      "mean_anomaly_deg": 315.1533,
      "mean_motion_rev_day": 15.24306909
    },
    {
      "epoch": "2026-03-30T22:46:41.726784Z",
      "apogee_km": 493.56048912697133,
      "perigee_km": 492.15028664928013,
      "latitude_deg": -2.991218941688141e-05,
      "longitude_deg": -132.00185172598145,
      "height_km": 495.4485457694025,
      "semi_major_axis_km": 6870.992387888125,
      "eccentricity": 0.00010262,
      "inclination_deg": 97.6207,
      "raan_deg": 38.0055,
      "arg_perigee_deg": 45.3474,
      "mean_anomaly_deg": 314.7846,
      "mean_motion_rev_day": 15.2431092
    },
    {
      "epoch": "2026-03-31T20:50:06.031104Z",
      "apogee_km": 493.4772609605943,
      "perigee_km": 492.1676560878004,
      "latitude_deg": 7.50769656010683e-07,
      "longitude_deg": -102.82456111256681,
      "height_km": 495.4612249702476,
      "semi_major_axis_km": 6870.9594585241975,
      "eccentricity": 9.53e-05,
      "inclination_deg": 97.6211,
      "raan_deg": 38.9399,
      "arg_perigee_deg": 46.5876,
      "mean_anomaly_deg": 313.544,
      "mean_motion_rev_day": 15.24321878
    },
    {
      "epoch": "2026-04-01T20:28:01.458624Z",
      "apogee_km": 493.39280914251594,
      "perigee_km": 492.20138916972155,
      "latitude_deg": -4.813091656151465e-05,
      "longitude_deg": -97.27483572039804,
      "height_km": 495.4871668280478,
      "semi_major_axis_km": 6870.9340991561185,
      "eccentricity": 8.67e-05,
      "inclination_deg": 97.6214,
      "raan_deg": 39.9411,
      "arg_perigee_deg": 47.9745,
      "mean_anomaly_deg": 312.1565,
      "mean_motion_rev_day": 15.24330317
    }
  ]
}